{
  "type": "FeatureCollection",
  "features": [
    {
      "type": "Feature",
      "properties": {
        "norad_id": 38212,
        "name": "COSMOS 2251 DEB",
        "group": "cosmos-2251-debris",
        "lat": 0.8216594351839989,
        "lon": -84.33701235973273,
        "alt_km": 575.6632524893885,
        "timestamp": "2025-12-02T21:34:01.668839+00:00",
        "meta_object_name": "COSMOS 2251 DEB",
        "meta_object_id": "1993-036BTC",
        "meta_epoch": "2025-11-30T02:08:11.826528",
        "meta_mean_motion": 14.77531577,
        "meta_eccentricity": 0.00935039,
        "meta_inclination": 74.0506,
        "meta_ra_of_asc_node": 101.4043,
        "meta_arg_of_pericenter": 172.1987,
        "meta_mean_anomaly": 188.0671,
        "meta_ephemeris_type": 0,
        "meta_classification_type": "U",
        "meta_norad_cat_id": 38212,
        "meta_element_set_no": 999,
        "meta_rev_at_epoch": 81123,
        "meta_bstar": 0.000758158,
        "meta_mean_motion_dot": 5.788e-05,
        "meta_mean_motion_ddot": 0,
        "tle_line1": "1 38212U 93036BTC 25334.08902577  .00005788  00000+0  75816-3 0  9999",
        "tle_line2": "2 38212  74.0506 101.4043 0093503 172.1987 188.0671 14.77531577811231"
      },
      "geometry": {
        "type": "Point",
        "coordinates": [
          -84.33701235973273,
          0.8216594351839989
        ]
      }
    },
    {
      "type": "Feature",
      "properties": {
        "norad_id": 38220,
        "name": "COSMOS 2251 DEB",
        "group": "cosmos-2251-debris",
        "lat": 15.66505491346556,
        "lon": -96.52399159065031,
        "alt_km": 591.2832075740143,
        "timestamp": "2025-12-02T21:34:01.668849+00:00",
        "meta_object_name": "COSMOS 2251 DEB",
        "meta_object_id": "1993-036BTL",
        "meta_epoch": "2025-12-01T14:15:24.602400",
        "meta_mean_motion": 14.91758234,
        "meta_eccentricity": 0.00038438,
        "meta_inclination": 74.0144,
        "meta_ra_of_asc_node": 90.707,
        "meta_arg_of_pericenter": 105.3216,
        "meta_mean_anomaly": 254.8391,
        "meta_ephemeris_type": 0,
        "meta_classification_type": "U",
        "meta_norad_cat_id": 38220,
        "meta_element_set_no": 999,
        "meta_rev_at_epoch": 71204,
        "meta_bstar": 0.0036878,
        "meta_mean_motion_dot": 0.00037337,
        "meta_mean_motion_ddot": 0,
        "tle_line1": "1 38220U 93036BTL 25335.59403475  .00037337  00000+0  36878-2 0  9997",
        "tle_line2": "2 38220  74.0144  90.7070 0003843 105.3216 254.8391 14.91758234712046"
      },
      "geometry": {
        "type": "Point",
        "coordinates": [
          -96.52399159065031,
          15.66505491346556
        ]
      }
    },
    {
      "type": "Feature",
      "properties": {
        "norad_id": 38479,
        "name": "COSMOS 2251 DEB",
        "group": "cosmos-2251-debris",
        "lat": 50.74703046697182,
        "lon": -136.9954411069788,
        "alt_km": 771.1162604218835,
        "timestamp": "2025-12-02T21:34:01.668859+00:00",
        "meta_object_name": "COSMOS 2251 DEB",
        "meta_object_id": "1993-036BTP",
        "meta_epoch": "2025-11-15T12:46:06.719808",
        "meta_mean_motion": 14.37875238,
        "meta_eccentricity": 0.00846922,
        "meta_inclination": 74.0077,
        "meta_ra_of_asc_node": 234.4912,
        "meta_arg_of_pericenter": 348.2771,
        "meta_mean_anomaly": 195.3627,
        "meta_ephemeris_type": 0,
        "meta_classification_type": "U",
        "meta_norad_cat_id": 38479,
        "meta_element_set_no": 999,
        "meta_rev_at_epoch": 64296,
        "meta_bstar": 0.00281077,
        "meta_mean_motion_dot": 8.824e-05,
        "meta_mean_motion_ddot": 0,
        "tle_line1": "1 38479U 93036BTP 25319.53202222  .00008824  00000+0  28108-2 0  9992",
        "tle_line2": "2 38479  74.0077 234.4912 0084692 348.2771 195.3627 14.37875238642962"
      },
      "geometry": {
        "type": "Point",
        "coordinates": [
          -136.9954411069788,
          50.74703046697182
        ]
      }
    },
    {
      "type": "Feature",
      "properties": {
        "norad_id": 38481,
        "name": "COSMOS 2251 DEB",
        "group": "cosmos-2251-debris",
        "lat": 52.269990807035335,
        "lon": 46.43392265516325,
        "alt_km": 899.1435890250377,
        "timestamp": "2025-12-02T21:34:01.668869+00:00",
        "meta_object_name": "COSMOS 2251 DEB",
        "meta_object_id": "1993-036BTR",
        "meta_epoch": "2025-11-30T21:06:34.190496",
        "meta_mean_motion": 13.94733975,
        "meta_eccentricity": 0.02337783,
        "meta_inclination": 73.9329,
        "meta_ra_of_asc_node": 28.0528,
        "meta_arg_of_pericenter": 330.587,
        "meta_mean_anomaly": 28.2266,
        "meta_ephemeris_type": 0,
        "meta_classification_type": "U",
        "meta_norad_cat_id": 38481,
        "meta_element_set_no": 999,
        "meta_rev_at_epoch": 58895,
        "meta_bstar": 0.0013592661,
        "meta_mean_motion_dot": 2.261e-05,
        "meta_mean_motion_ddot": 0,
        "tle_line1": "1 38481U 93036BTR 25334.87956239  .00002261  00000+0  13593-2 0  9994",
        "tle_line2": "2 38481  73.9329  28.0528 0233778 330.5870  28.2266 13.94733975588952"
      },
      "geometry": {
        "type": "Point",
        "coordinates": [
          46.43392265516325,
          52.269990807035335
        ]
      }
    },
    {
      "type": "Feature",
      "properties": {
        "norad_id": 38483,
        "name": "COSMOS 2251 DEB",
        "group": "cosmos-2251-debris",
        "lat": 30.573316797102475,
        "lon": 38.95099066680625,
        "alt_km": 815.3555058041165,
        "timestamp": "2025-12-02T21:34:01.668879+00:00",
        "meta_object_name": "COSMOS 2251 DEB",
        "meta_object_id": "1993-036BTT",
        "meta_epoch": "2025-11-30T10:35:51.419040",
        "meta_mean_motion": 14.2869489,
        "meta_eccentricity": 0.01113545,
        "meta_inclination": 74.2627,
        "meta_ra_of_asc_node": 33.7569,
        "meta_arg_of_pericenter": 143.1875,
        "meta_mean_anomaly": 217.699,
        "meta_ephemeris_type": 0,
        "meta_classification_type": "U",
        "meta_norad_cat_id": 38483,
        "meta_element_set_no": 999,
        "meta_rev_at_epoch": 63302,
        "meta_bstar": 0.00092192588,
        "meta_mean_motion_dot": 2.455e-05,
        "meta_mean_motion_ddot": 0,
        "tle_line1": "1 38483U 93036BTT 25334.44156735  .00002455  00000+0  92193-3 0  9991",
        "tle_line2": "2 38483  74.2627  33.7569 0111354 143.1875 217.6990 14.28694890633022"
      },
      "geometry": {
        "type": "Point",
        "coordinates": [
          38.95099066680625,
          30.573316797102475
        ]
      }
    },
    {
      "type": "Feature",
      "properties": {
        "norad_id": 38485,
        "name": "COSMOS 2251 DEB",
        "group": "cosmos-2251-debris",
        "lat": 19.756946918449607,
        "lon": 157.97921329045582,
        "alt_km": 56.05497722259952,
        "timestamp": "2025-12-02T21:34:01.668890+00:00",
        "meta_object_name": "COSMOS 2251 DEB",
        "meta_object_id": "1993-036BTV",
        "meta_epoch": "2025-11-14T09:18:27.993600",
        "meta_mean_motion": 15.68613644,
        "meta_eccentricity": 0.00102471,
        "meta_inclination": 73.981,
        "meta_ra_of_asc_node": 194.9886,
        "meta_arg_of_pericenter": 147.6012,
        "meta_mean_anomaly": 212.5842,
        "meta_ephemeris_type": 0,
        "meta_classification_type": "U",
        "meta_norad_cat_id": 38485,
        "meta_element_set_no": 999,
        "meta_rev_at_epoch": 17189,
        "meta_bstar": 0.008021323,
        "meta_mean_motion_dot": 0.01011848,
        "meta_mean_motion_ddot": 0,
        "tle_line1": "1 38485U 93036BTV 25318.38782400  .01011848  00000+0  80213-2 0  9998",
        "tle_line2": "2 38485  73.9810 194.9886 0010247 147.6012 212.5842 15.68613644171892"
      },
      "geometry": {
        "type": "Point",
        "coordinates": [
          157.97921329045582,
          19.756946918449607
        ]
      }
    },
    {
      "type": "Feature",
      "properties": {
        "norad_id": 38486,
        "name": "COSMOS 2251 DEB",
        "group": "cosmos-2251-debris",
        "lat": -62.082132940487625,
        "lon": 77.06837588121299,
        "alt_km": 670.4383542931164,
        "timestamp": "2025-12-02T21:34:01.668900+00:00",
        "meta_object_name": "COSMOS 2251 DEB",
        "meta_object_id": "1993-036BTW",
        "meta_epoch": "2025-12-01T23:18:40.096224",
        "meta_mean_motion": 14.72693828,
        "meta_eccentricity": 0.00300221,
        "meta_inclination": 73.9411,
        "meta_ra_of_asc_node": 225.9531,
        "meta_arg_of_pericenter": 11.225,
        "meta_mean_anomaly": 1.4037,
        "meta_ephemeris_type": 0,
        "meta_classification_type": "U",
        "meta_norad_cat_id": 38486,
        "meta_element_set_no": 999,
        "meta_rev_at_epoch": 75276,
        "meta_bstar": 0.0031614805,
        "meta_mean_motion_dot": 0.00020338,
        "meta_mean_motion_ddot": 0,
        "tle_line1": "1 38486U 93036BTW 25335.97129741  .00020338  00000+0  31615-2 0  9991",
        "tle_line2": "2 38486  73.9411 225.9531 0030022  11.2250   1.4037 14.72693828752763"
      },
      "geometry": {
        "type": "Point",
        "coordinates": [
          77.06837588121299,
          -62.082132940487625
        ]
      }
    }
  ]
}